LANDSAT 9               
1 49260U 21088A   24109.22259158  .00001299  00000+0  29816-3 0  9999
2 49260  98.1902 179.8473 0001211  82.3572 277.7764 14.57139643135960
